CCSDS_OMM_VERS = 2.0
CREATION_DATE  = 
ORIGINATOR     = 

OBJECT_NAME    = KUIPER-00178
OBJECT_ID      = 2026-030D
CENTER_NAME    = EARTH
REF_FRAME      = TEME
TIME_SYSTEM    = UTC
MEAN_ELEMENT_THEORY = SGP/SGP4

EPOCH          = 2026-02-25T14:14:11.299776
MEAN_MOTION    = 15.34942684
ECCENTRICITY   = .00059287
INCLINATION    = 51.8846
RA_OF_ASC_NODE = 277.4944
ARG_OF_PERICENTER = 16.1328
MEAN_ANOMALY   = 343.9845

EPHEMERIS_TYPE = 0
CLASSIFICATION_TYPE = U
NORAD_CAT_ID   = 67767
ELEMENT_SET_NO = 999
REV_AT_EPOCH   = 323
BSTAR          = .68610166E-3
MEAN_MOTION_DOT = .2331E-3
MEAN_MOTION_DDOT = 0

CCSDS_OMM_VERS = 2.0
CREATION_DATE  = 
ORIGINATOR     = 

OBJECT_NAME    = KUIPER-00180
OBJECT_ID      = 2026-030E
CENTER_NAME    = EARTH
REF_FRAME      = TEME
TIME_SYSTEM    = UTC
MEAN_ELEMENT_THEORY = SGP/SGP4

EPOCH          = 2026-02-25T14:37:50.013696
MEAN_MOTION    = 15.32619154
ECCENTRICITY   = .00142025
INCLINATION    = 51.8827
RA_OF_ASC_NODE = 277.5951
ARG_OF_PERICENTER = 34.7685
MEAN_ANOMALY   = 325.4225

EPHEMERIS_TYPE = 0
CLASSIFICATION_TYPE = U
NORAD_CAT_ID   = 67768
ELEMENT_SET_NO = 999
REV_AT_EPOCH   = 323
BSTAR          = .93807894E-3
MEAN_MOTION_DOT = .29822E-3
MEAN_MOTION_DDOT = 0

CCSDS_OMM_VERS = 2.0
CREATION_DATE  = 
ORIGINATOR     = 

OBJECT_NAME    = KUIPER-00197
OBJECT_ID      = 2026-030F
CENTER_NAME    = EARTH
REF_FRAME      = TEME
TIME_SYSTEM    = UTC
MEAN_ELEMENT_THEORY = SGP/SGP4

EPOCH          = 2026-02-25T14:03:35.240256
MEAN_MOTION    = 15.35809412
ECCENTRICITY   = .00015831
INCLINATION    = 51.8833
RA_OF_ASC_NODE = 277.4469
ARG_OF_PERICENTER = 73.3584
MEAN_ANOMALY   = 286.7576

EPHEMERIS_TYPE = 0
CLASSIFICATION_TYPE = U
NORAD_CAT_ID   = 67769
ELEMENT_SET_NO = 999
REV_AT_EPOCH   = 323
BSTAR          = .87460206E-3
MEAN_MOTION_DOT = .30682E-3
MEAN_MOTION_DDOT = 0

CCSDS_OMM_VERS = 2.0
CREATION_DATE  = 
ORIGINATOR     = 

OBJECT_NAME    = KUIPER-00198
OBJECT_ID      = 2026-030G
CENTER_NAME    = EARTH
REF_FRAME      = TEME
TIME_SYSTEM    = UTC
MEAN_ELEMENT_THEORY = SGP/SGP4

EPOCH          = 2026-02-25T14:07:58.815552
MEAN_MOTION    = 15.35463616
ECCENTRICITY   = .00026778
INCLINATION    = 51.8815
RA_OF_ASC_NODE = 277.4632
ARG_OF_PERICENTER = 28.8641
MEAN_ANOMALY   = 331.2492

EPHEMERIS_TYPE = 0
CLASSIFICATION_TYPE = U
NORAD_CAT_ID   = 67770
ELEMENT_SET_NO = 999
REV_AT_EPOCH   = 323
BSTAR          = .89417736E-3
MEAN_MOTION_DOT = .31032E-3
MEAN_MOTION_DDOT = 0

CCSDS_OMM_VERS = 2.0
CREATION_DATE  = 
ORIGINATOR     = 

OBJECT_NAME    = KUIPER-00199
OBJECT_ID      = 2026-030H
CENTER_NAME    = EARTH
REF_FRAME      = TEME
TIME_SYSTEM    = UTC
MEAN_ELEMENT_THEORY = SGP/SGP4

EPOCH          = 2026-02-25T14:27:17.335872
MEAN_MOTION    = 15.33839642
ECCENTRICITY   = .00102666
INCLINATION    = 51.8824
RA_OF_ASC_NODE = 277.5483
ARG_OF_PERICENTER = 26.0155
MEAN_ANOMALY   = 334.1344

EPHEMERIS_TYPE = 0
CLASSIFICATION_TYPE = U
NORAD_CAT_ID   = 67771
ELEMENT_SET_NO = 999
REV_AT_EPOCH   = 323
BSTAR          = .64980251E-3
MEAN_MOTION_DOT = .21303E-3
MEAN_MOTION_DDOT = 0

CCSDS_OMM_VERS = 2.0
CREATION_DATE  = 
ORIGINATOR     = 

OBJECT_NAME    = KUIPER-00200
OBJECT_ID      = 2026-030J
CENTER_NAME    = EARTH
REF_FRAME      = TEME
TIME_SYSTEM    = UTC
MEAN_ELEMENT_THEORY = SGP/SGP4

EPOCH          = 2026-02-25T13:56:16.354176
MEAN_MOTION    = 15.36424458
ECCENTRICITY   = .00021551
INCLINATION    = 51.8811
RA_OF_ASC_NODE = 277.4121
ARG_OF_PERICENTER = 163.2049
MEAN_ANOMALY   = 196.9009

EPHEMERIS_TYPE = 0
CLASSIFICATION_TYPE = U
NORAD_CAT_ID   = 67772
ELEMENT_SET_NO = 999
REV_AT_EPOCH   = 323
BSTAR          = .70722541E-3
MEAN_MOTION_DOT = .25218E-3
MEAN_MOTION_DDOT = 0

CCSDS_OMM_VERS = 2.0
CREATION_DATE  = 
ORIGINATOR     = 

OBJECT_NAME    = KUIPER-00203
OBJECT_ID      = 2026-030K
CENTER_NAME    = EARTH
REF_FRAME      = TEME
TIME_SYSTEM    = UTC
MEAN_ELEMENT_THEORY = SGP/SGP4

EPOCH          = 2026-02-25T14:30:41.357376
MEAN_MOTION    = 15.33561290
ECCENTRICITY   = .00124705
INCLINATION    = 51.8815
RA_OF_ASC_NODE = 277.5611
ARG_OF_PERICENTER = 28.0995
MEAN_ANOMALY   = 332.0661

EPHEMERIS_TYPE = 0
CLASSIFICATION_TYPE = U
NORAD_CAT_ID   = 67773
ELEMENT_SET_NO = 999
REV_AT_EPOCH   = 323
BSTAR          = .70299456E-3
MEAN_MOTION_DOT = .22896E-3
MEAN_MOTION_DDOT = 0

CCSDS_OMM_VERS = 2.0
CREATION_DATE  = 
ORIGINATOR     = 

OBJECT_NAME    = KUIPER-00205
OBJECT_ID      = 2026-030L
CENTER_NAME    = EARTH
REF_FRAME      = TEME
TIME_SYSTEM    = UTC
MEAN_ELEMENT_THEORY = SGP/SGP4

EPOCH          = 2026-02-25T14:04:32.123424
MEAN_MOTION    = 15.35791886
ECCENTRICITY   = .00020611
INCLINATION    = 51.8815
RA_OF_ASC_NODE = 277.4484
ARG_OF_PERICENTER = 357.8914
MEAN_ANOMALY   = 2.2063

EPHEMERIS_TYPE = 0
CLASSIFICATION_TYPE = U
NORAD_CAT_ID   = 67774
ELEMENT_SET_NO = 999
REV_AT_EPOCH   = 323
BSTAR          = .10161745E-2
MEAN_MOTION_DOT = .35715E-3
MEAN_MOTION_DDOT = 0

CCSDS_OMM_VERS = 2.0
CREATION_DATE  = 
ORIGINATOR     = 

OBJECT_NAME    = KUIPER-00208
OBJECT_ID      = 2026-030M
CENTER_NAME    = EARTH
REF_FRAME      = TEME
TIME_SYSTEM    = UTC
MEAN_ELEMENT_THEORY = SGP/SGP4

EPOCH          = 2026-02-25T14:36:57.380544
MEAN_MOTION    = 15.32819191
ECCENTRICITY   = .00146166
INCLINATION    = 51.8850
RA_OF_ASC_NODE = 277.5973
ARG_OF_PERICENTER = 26.5328
MEAN_ANOMALY   = 333.6402

EPHEMERIS_TYPE = 0
CLASSIFICATION_TYPE = U
NORAD_CAT_ID   = 67775
ELEMENT_SET_NO = 999
REV_AT_EPOCH   = 323
BSTAR          = .5867174E-3
MEAN_MOTION_DOT = .18604E-3
MEAN_MOTION_DDOT = 0

CCSDS_OMM_VERS = 2.0
CREATION_DATE  = 
ORIGINATOR     = 

OBJECT_NAME    = KUIPER-00209
OBJECT_ID      = 2026-030N
CENTER_NAME    = EARTH
REF_FRAME      = TEME
TIME_SYSTEM    = UTC
MEAN_ELEMENT_THEORY = SGP/SGP4

EPOCH          = 2026-02-25T14:36:08.980992
MEAN_MOTION    = 15.32479578
ECCENTRICITY   = .00122983
INCLINATION    = 51.8844
RA_OF_ASC_NODE = 277.5924
ARG_OF_PERICENTER = 27.5138
MEAN_ANOMALY   = 332.6496

EPHEMERIS_TYPE = 0
CLASSIFICATION_TYPE = U
NORAD_CAT_ID   = 67776
ELEMENT_SET_NO = 999
REV_AT_EPOCH   = 323
BSTAR          = .60972056E-3
MEAN_MOTION_DOT = .19124E-3
MEAN_MOTION_DDOT = 0

CCSDS_OMM_VERS = 2.0
CREATION_DATE  = 
ORIGINATOR     = 

OBJECT_NAME    = KUIPER-00213
OBJECT_ID      = 2026-030P
CENTER_NAME    = EARTH
REF_FRAME      = TEME
TIME_SYSTEM    = UTC
MEAN_ELEMENT_THEORY = SGP/SGP4

EPOCH          = 2026-02-25T14:36:01.095264
MEAN_MOTION    = 15.32593874
ECCENTRICITY   = .0014299
INCLINATION    = 51.8824
RA_OF_ASC_NODE = 277.5869
ARG_OF_PERICENTER = 30.3371
MEAN_ANOMALY   = 329.8438

EPHEMERIS_TYPE = 0
CLASSIFICATION_TYPE = U
NORAD_CAT_ID   = 67777
ELEMENT_SET_NO = 999
REV_AT_EPOCH   = 323
BSTAR          = .61214299E-3
MEAN_MOTION_DOT = .19287E-3
MEAN_MOTION_DDOT = 0

CCSDS_OMM_VERS = 2.0
CREATION_DATE  = 
ORIGINATOR     = 

OBJECT_NAME    = KUIPER-00214
OBJECT_ID      = 2026-030Q
CENTER_NAME    = EARTH
REF_FRAME      = TEME
TIME_SYSTEM    = UTC
MEAN_ELEMENT_THEORY = SGP/SGP4

EPOCH          = 2026-02-25T13:58:23.175552
MEAN_MOTION    = 15.36210426
ECCENTRICITY   = .00017279
INCLINATION    = 51.8842
RA_OF_ASC_NODE = 277.4241
ARG_OF_PERICENTER = 150.7278
MEAN_ANOMALY   = 209.3805

EPHEMERIS_TYPE = 0
CLASSIFICATION_TYPE = U
NORAD_CAT_ID   = 67778
ELEMENT_SET_NO = 999
REV_AT_EPOCH   = 323
BSTAR          = .79057257E-3
MEAN_MOTION_DOT = .2805E-3
MEAN_MOTION_DDOT = 0

