KUIPER-00178            
1 67767U 26030D   26056.59318634  .00023310  00000+0  68610-3 0  9994
2 67767  51.8846 277.4944 0005928  16.1328 343.9845 15.34942684  3239
KUIPER-00180            
1 67768U 26030E   26056.60960664  .00029822  00000+0  93808-3 0  9994
2 67768  51.8827 277.5951 0014202  34.7685 325.4225 15.32619154  3233
KUIPER-00197            
1 67769U 26030F   26056.58582454  .00030682  00000+0  87460-3 0  9992
2 67769  51.8833 277.4469 0001583  73.3584 286.7576 15.35809412  3238
KUIPER-00198            
1 67770U 26030G   26056.58887518  .00031032  00000+0  89418-3 0  9998
2 67770  51.8815 277.4632 0002677  28.8641 331.2492 15.35463616  3231
KUIPER-00199            
1 67771U 26030H   26056.60228398  .00021303  00000+0  64980-3 0  9994
2 67771  51.8824 277.5483 0010266  26.0155 334.1344 15.33839642  3232
KUIPER-00200            
1 67772U 26030J   26056.58074484  .00025218  00000+0  70723-3 0  9998
2 67772  51.8811 277.4121 0002155 163.2049 196.9009 15.36424458  3231
KUIPER-00203            
1 67773U 26030K   26056.60464534  .00022896  00000+0  70299-3 0  9998
2 67773  51.8815 277.5611 0012470  28.0995 332.0661 15.33561290  3230
KUIPER-00205            
1 67774U 26030L   26056.58648291  .00035715  00000+0  10162-2 0  9996
2 67774  51.8815 277.4484 0002061 357.8914   2.2063 15.35791886  3237
KUIPER-00208            
1 67775U 26030M   26056.60899746  .00018604  00000+0  58672-3 0  9990
2 67775  51.8850 277.5973 0014616  26.5328 333.6402 15.32819191  3234
KUIPER-00209            
1 67776U 26030N   26056.60843728  .00019124  00000+0  60972-3 0  9994
2 67776  51.8844 277.5924 0012298  27.5138 332.6496 15.32479578  3231
KUIPER-00213            
1 67777U 26030P   26056.60834601  .00019287  00000+0  61214-3 0  9995
2 67777  51.8824 277.5869 0014299  30.3371 329.8438 15.32593874  3232
KUIPER-00214            
1 67778U 26030Q   26056.58221268  .00028050  00000+0  79057-3 0  9994
2 67778  51.8842 277.4241 0001727 150.7278 209.3805 15.36210426  3234
